CCSDS_OMM_VERS = 2.0
CREATION_DATE  = 
ORIGINATOR     = 

OBJECT_NAME    = IDEFIX & ARIANE 42P R/B
OBJECT_ID      = 2002-021B
CENTER_NAME    = EARTH
REF_FRAME      = TEME
TIME_SYSTEM    = UTC
MEAN_ELEMENT_THEORY = SGP/SGP4

EPOCH          = 2026-01-25T10:11:34.774656
MEAN_MOTION    = 14.30991041
ECCENTRICITY   = .0011159
INCLINATION    = 98.5830
RA_OF_ASC_NODE = 324.5601
ARG_OF_PERICENTER = 319.7947
MEAN_ANOMALY   = 40.2410

EPHEMERIS_TYPE = 0
CLASSIFICATION_TYPE = U
NORAD_CAT_ID   = 27422
ELEMENT_SET_NO = 999
REV_AT_EPOCH   = 23783
BSTAR          = .24147E-3
MEAN_MOTION_DOT = .592E-5
MEAN_MOTION_DDOT = 0

CCSDS_OMM_VERS = 2.0
CREATION_DATE  = 
ORIGINATOR     = 

OBJECT_NAME    = AQUA
OBJECT_ID      = 2002-022A
CENTER_NAME    = EARTH
REF_FRAME      = TEME
TIME_SYSTEM    = UTC
MEAN_ELEMENT_THEORY = SGP/SGP4

EPOCH          = 2026-01-25T12:09:19.313856
MEAN_MOTION    = 14.61858879
ECCENTRICITY   = .0001896
INCLINATION    = 98.4099
RA_OF_ASC_NODE = 352.1114
ARG_OF_PERICENTER = 65.7986
MEAN_ANOMALY   = 47.0097

EPHEMERIS_TYPE = 0
CLASSIFICATION_TYPE = U
NORAD_CAT_ID   = 27424
ELEMENT_SET_NO = 999
REV_AT_EPOCH   = 26242
BSTAR          = .38363E-3
MEAN_MOTION_DOT = .1868E-4
MEAN_MOTION_DDOT = 0

CCSDS_OMM_VERS = 2.0
CREATION_DATE  = 
ORIGINATOR     = 

OBJECT_NAME    = CZ-4B R/B
OBJECT_ID      = 2002-024C
CENTER_NAME    = EARTH
REF_FRAME      = TEME
TIME_SYSTEM    = UTC
MEAN_ELEMENT_THEORY = SGP/SGP4

EPOCH          = 2026-01-25T03:32:00.415392
MEAN_MOTION    = 14.14538961
ECCENTRICITY   = .00507767
INCLINATION    = 98.8932
RA_OF_ASC_NODE = 78.7536
ARG_OF_PERICENTER = 145.8294
MEAN_ANOMALY   = 276.0939

EPHEMERIS_TYPE = 0
CLASSIFICATION_TYPE = U
NORAD_CAT_ID   = 27432
ELEMENT_SET_NO = 999
REV_AT_EPOCH   = 22308
BSTAR          = .7883855E-4
MEAN_MOTION_DOT = .109E-5
MEAN_MOTION_DDOT = 0

CCSDS_OMM_VERS = 2.0
CREATION_DATE  = 
ORIGINATOR     = 

OBJECT_NAME    = MIDORI II (ADEOS-II)
OBJECT_ID      = 2002-056A
CENTER_NAME    = EARTH
REF_FRAME      = TEME
TIME_SYSTEM    = UTC
MEAN_ELEMENT_THEORY = SGP/SGP4

EPOCH          = 2026-01-25T11:17:08.355840
MEAN_MOTION    = 14.29247860
ECCENTRICITY   = .0001992
INCLINATION    = 98.7698
RA_OF_ASC_NODE = 343.6709
ARG_OF_PERICENTER = 103.6132
MEAN_ANOMALY   = 256.5271

EPHEMERIS_TYPE = 0
CLASSIFICATION_TYPE = U
NORAD_CAT_ID   = 27597
ELEMENT_SET_NO = 999
REV_AT_EPOCH   = 20412
BSTAR          = .2633E-3
MEAN_MOTION_DOT = .624E-5
MEAN_MOTION_DDOT = 0

CCSDS_OMM_VERS = 2.0
CREATION_DATE  = 
ORIGINATOR     = 

OBJECT_NAME    = H-2A R/B
OBJECT_ID      = 2002-056E
CENTER_NAME    = EARTH
REF_FRAME      = TEME
TIME_SYSTEM    = UTC
MEAN_ELEMENT_THEORY = SGP/SGP4

EPOCH          = 2026-01-25T12:26:45.019104
MEAN_MOTION    = 14.33724716
ECCENTRICITY   = .0069123
INCLINATION    = 98.3127
RA_OF_ASC_NODE = 347.5487
ARG_OF_PERICENTER = 290.7495
MEAN_ANOMALY   = 181.1391

EPHEMERIS_TYPE = 0
CLASSIFICATION_TYPE = U
NORAD_CAT_ID   = 27601
ELEMENT_SET_NO = 999
REV_AT_EPOCH   = 20792
BSTAR          = .24217E-3
MEAN_MOTION_DOT = .648E-5
MEAN_MOTION_DDOT = 0

CCSDS_OMM_VERS = 2.0
CREATION_DATE  = 
ORIGINATOR     = 

OBJECT_NAME    = CZ-4B R/B
OBJECT_ID      = 2003-049C
CENTER_NAME    = EARTH
REF_FRAME      = TEME
TIME_SYSTEM    = UTC
MEAN_ELEMENT_THEORY = SGP/SGP4

EPOCH          = 2026-01-25T11:19:30.343872
MEAN_MOTION    = 14.54965679
ECCENTRICITY   = .0048355
INCLINATION    = 98.6830
RA_OF_ASC_NODE = 18.6986
ARG_OF_PERICENTER = 5.0280
MEAN_ANOMALY   = 355.1391

EPHEMERIS_TYPE = 0
CLASSIFICATION_TYPE = U
NORAD_CAT_ID   = 28059
ELEMENT_SET_NO = 999
REV_AT_EPOCH   = 18031
BSTAR          = .20984E-3
MEAN_MOTION_DOT = .865E-5
MEAN_MOTION_DDOT = 0

CCSDS_OMM_VERS = 2.0
CREATION_DATE  = 
ORIGINATOR     = 

OBJECT_NAME    = CZ-2C R/B
OBJECT_ID      = 2004-012C
CENTER_NAME    = EARTH
REF_FRAME      = TEME
TIME_SYSTEM    = UTC
MEAN_ELEMENT_THEORY = SGP/SGP4

EPOCH          = 2026-01-25T02:37:53.958720
MEAN_MOTION    = 15.59534460
ECCENTRICITY   = .00169797
INCLINATION    = 97.7332
RA_OF_ASC_NODE = 86.4217
ARG_OF_PERICENTER = 110.7853
MEAN_ANOMALY   = 249.5223

EPHEMERIS_TYPE = 0
CLASSIFICATION_TYPE = U
NORAD_CAT_ID   = 28222
ELEMENT_SET_NO = 999
REV_AT_EPOCH   = 19747
BSTAR          = .74433167E-3
MEAN_MOTION_DOT = .5969E-3
MEAN_MOTION_DDOT = 0

CCSDS_OMM_VERS = 2.0
CREATION_DATE  = 
ORIGINATOR     = 

OBJECT_NAME    = SL-16 R/B
OBJECT_ID      = 2004-021B
CENTER_NAME    = EARTH
REF_FRAME      = TEME
TIME_SYSTEM    = UTC
MEAN_ELEMENT_THEORY = SGP/SGP4

EPOCH          = 2026-01-25T04:20:23.185824
MEAN_MOTION    = 14.14591856
ECCENTRICITY   = .0002636
INCLINATION    = 71.0026
RA_OF_ASC_NODE = 323.8007
ARG_OF_PERICENTER = 119.9531
MEAN_ANOMALY   = 240.1853

EPHEMERIS_TYPE = 0
CLASSIFICATION_TYPE = U
NORAD_CAT_ID   = 28353
ELEMENT_SET_NO = 999
REV_AT_EPOCH   = 11668
BSTAR          = -.61237E-4
MEAN_MOTION_DOT = -.165E-5
MEAN_MOTION_DDOT = 0

CCSDS_OMM_VERS = 2.0
CREATION_DATE  = 
ORIGINATOR     = 

OBJECT_NAME    = CZ-4B R/B
OBJECT_ID      = 2004-035C
CENTER_NAME    = EARTH
REF_FRAME      = TEME
TIME_SYSTEM    = UTC
MEAN_ELEMENT_THEORY = SGP/SGP4

EPOCH          = 2026-01-25T01:14:04.142976
MEAN_MOTION    = 15.28215245
ECCENTRICITY   = .00341476
INCLINATION    = 97.3566
RA_OF_ASC_NODE = 59.8305
ARG_OF_PERICENTER = 122.0054
MEAN_ANOMALY   = 238.4512

EPHEMERIS_TYPE = 0
CLASSIFICATION_TYPE = U
NORAD_CAT_ID   = 28415
ELEMENT_SET_NO = 999
REV_AT_EPOCH   = 17324
BSTAR          = .43350222E-3
MEAN_MOTION_DOT = .12059E-3
MEAN_MOTION_DDOT = 0

CCSDS_OMM_VERS = 2.0
CREATION_DATE  = 
ORIGINATOR     = 

OBJECT_NAME    = CZ-2C R/B
OBJECT_ID      = 2004-046B
CENTER_NAME    = EARTH
REF_FRAME      = TEME
TIME_SYSTEM    = UTC
MEAN_ELEMENT_THEORY = SGP/SGP4

EPOCH          = 2026-01-25T08:41:53.431008
MEAN_MOTION    = 14.26973260
ECCENTRICITY   = .0138257
INCLINATION    = 98.2000
RA_OF_ASC_NODE = 303.0353
ARG_OF_PERICENTER = 283.1942
MEAN_ANOMALY   = 75.3847

EPHEMERIS_TYPE = 0
CLASSIFICATION_TYPE = U
NORAD_CAT_ID   = 28480
ELEMENT_SET_NO = 999
REV_AT_EPOCH   = 10232
BSTAR          = .14238E-3
MEAN_MOTION_DOT = .34E-5
MEAN_MOTION_DDOT = 0

CCSDS_OMM_VERS = 2.0
CREATION_DATE  = 
ORIGINATOR     = 

OBJECT_NAME    = ARIANE 5 R/B
OBJECT_ID      = 2004-049H
CENTER_NAME    = EARTH
REF_FRAME      = TEME
TIME_SYSTEM    = UTC
MEAN_ELEMENT_THEORY = SGP/SGP4

EPOCH          = 2026-01-25T10:45:11.461248
MEAN_MOTION    = 14.85160104
ECCENTRICITY   = .0085274
INCLINATION    = 98.2557
RA_OF_ASC_NODE = 192.3082
ARG_OF_PERICENTER = 130.7185
MEAN_ANOMALY   = 230.1475

EPHEMERIS_TYPE = 0
CLASSIFICATION_TYPE = U
NORAD_CAT_ID   = 28499
ELEMENT_SET_NO = 999
REV_AT_EPOCH   = 13937
BSTAR          = .20411E-3
MEAN_MOTION_DOT = .1802E-4
MEAN_MOTION_DDOT = 0

CCSDS_OMM_VERS = 2.0
CREATION_DATE  = 
ORIGINATOR     = 

OBJECT_NAME    = CZ-2D R/B
OBJECT_ID      = 2005-024B
CENTER_NAME    = EARTH
REF_FRAME      = TEME
TIME_SYSTEM    = UTC
MEAN_ELEMENT_THEORY = SGP/SGP4

EPOCH          = 2026-01-25T11:45:39.265920
MEAN_MOTION    = 15.56347305
ECCENTRICITY   = .0005764
INCLINATION    = 97.3631
RA_OF_ASC_NODE = 39.1783
ARG_OF_PERICENTER = 154.2129
MEAN_ANOMALY   = 205.9414

EPHEMERIS_TYPE = 0
CLASSIFICATION_TYPE = U
NORAD_CAT_ID   = 28738
ELEMENT_SET_NO = 999
REV_AT_EPOCH   = 13305
BSTAR          = .65641E-3
MEAN_MOTION_DOT = .46361E-3
MEAN_MOTION_DDOT = 0

