IDEFIX & ARIANE 42P R/B 
1 27422U 02021B   26025.42470804  .00000592  00000+0  24147-3 0  9992
2 27422  98.5830 324.5601 0011159 319.7947  40.2410 14.30991041237836
AQUA                    
1 27424U 02022A   26025.50647354  .00001868  00000+0  38363-3 0  9992
2 27424  98.4099 352.1114 0001896  65.7986  47.0097 14.61858879262422
CZ-4B R/B               
1 27432U 02024C   26025.14722703  .00000109  00000+0  78839-4 0  9995
2 27432  98.8932  78.7536 0050776 145.8294 276.0939 14.14538961223086
MIDORI II (ADEOS-II)    
1 27597U 02056A   26025.47023560  .00000624  00000+0  26330-3 0  9993
2 27597  98.7698 343.6709 0001992 103.6132 256.5271 14.29247860204128
H-2A R/B                
1 27601U 02056E   26025.51857661  .00000648  00000+0  24217-3 0  9999
2 27601  98.3127 347.5487 0069123 290.7495 181.1391 14.33724716207925
CZ-4B R/B               
1 28059U 03049C   26025.47187898  .00000865  00000+0  20984-3 0  9991
2 28059  98.6830  18.6986 0048355   5.0280 355.1391 14.54965679180314
CZ-2C R/B               
1 28222U 04012C   26025.10965230  .00059690  00000+0  74433-3 0  9996
2 28222  97.7332  86.4217 0016979 110.7853 249.5223 15.59534460197471
SL-16 R/B               
1 28353U 04021B   26025.18082391 -.00000165  00000+0 -61237-4 0  9991
2 28353  71.0026 323.8007 0002636 119.9531 240.1853 14.14591856116687
CZ-4B R/B               
1 28415U 04035C   26025.05143684  .00012059  00000+0  43350-3 0  9992
2 28415  97.3566  59.8305 0034147 122.0054 238.4512 15.28215245173248
CZ-2C R/B               
1 28480U 04046B   26025.36242397  .00000340  00000+0  14238-3 0  9994
2 28480  98.2000 303.0353 0138257 283.1942  75.3847 14.26973260102327
ARIANE 5 R/B            
1 28499U 04049H   26025.44804932  .00001802  00000+0  20411-3 0  9999
2 28499  98.2557 192.3082 0085274 130.7185 230.1475 14.85160104139371
CZ-2D R/B               
1 28738U 05024B   26025.49003780  .00046361  00000+0  65641-3 0  9999
2 28738  97.3631  39.1783 0005764 154.2129 205.9414 15.56347305133052
